OBJECT_NAME,OBJECT_ID,EPOCH,MEAN_MOTION,ECCENTRICITY,INCLINATION,RA_OF_ASC_NODE,ARG_OF_PERICENTER,MEAN_ANOMALY,EPHEMERIS_TYPE,CLASSIFICATION_TYPE,NORAD_CAT_ID,ELEMENT_SET_NO,REV_AT_EPOCH,BSTAR,MEAN_MOTION_DOT,MEAN_MOTION_DDOT
STARLINK-30445,2023-144K,2025-02-08T01:07:56.087616,15.02532320,.000099,43.0024,272.0757,265.9367,94.1363,0,U,57873,999,7820,.10843E-4,-.57E-6,0
STARLINK-30447,2023-144L,2025-02-08T06:43:48.821952,15.02527305,.0002597,43.0019,245.1139,263.3363,96.7184,0,U,57874,999,7857,-.11663E-4,-.361E-5,0
STARLINK-30434,2023-144M,2025-02-08T00:53:32.386560,15.02538009,.0001293,43.0020,271.9977,274.1985,85.8709,0,U,57875,999,7825,.13263E-3,.1589E-4,0
STARLINK-30429,2023-144N,2025-02-08T08:47:23.690688,15.02536630,.0000391,42.9987,270.1670,327.1060,32.9758,0,U,57876,999,7829,.34048E-4,.257E-5,0
STARLINK-30284,2023-144P,2025-02-08T19:44:22.217568,15.02532352,.0001439,43.0022,229.3275,269.9036,90.1642,0,U,57877,999,7881,.15915E-4,.11E-6,0
STARLINK-30433,2023-144Q,2025-02-08T08:42:35.808480,15.02538345,.0001101,43.0049,270.1388,272.3371,87.7346,0,U,57878,999,7829,.7498E-4,.809E-5,0
STARLINK-30358,2023-144R,2025-02-08T08:39:24.198336,15.02535377,.0001133,43.0025,270.1247,266.3935,93.6778,0,U,57879,999,7829,.11039E-3,.1288E-4,0
STARLINK-30436,2023-144S,2025-02-08T08:28:12.960192,15.02539382,.0000761,43.0005,270.0675,261.0775,98.9982,0,U,57880,999,7829,-.47577E-4,-.846E-5,0
STARLINK-30339,2023-144U,2025-02-08T19:33:31.110624,15.02533147,.0001041,43.0018,267.5118,266.7651,93.3073,0,U,57882,999,7837,.35568E-4,.277E-5,0
STARLINK-30282,2023-144V,2025-02-08T08:15:25.760160,15.02532931,.0001213,43.0027,269.9983,265.2058,94.8646,0,U,57883,999,7829,.72117E-5,-.106E-5,0
STARLINK-30340,2023-144W,2025-02-08T08:09:02.404224,15.02528853,.0000777,43.0018,269.9564,265.8866,94.1888,0,U,57884,999,7829,-.22176E-4,-.503E-5,0
STARLINK-30279,2023-144X,2025-02-08T08:13:49.451808,15.02534314,.0001239,42.9991,269.9897,269.3917,90.6783,0,U,57885,999,7823,.57865E-4,.578E-5,0
YAOGAN-39 02A,2023-145A,2025-02-08T12:49:34.021056,15.23101201,.0005772,35.0016,64.9561,214.0256,146.0089,0,U,57886,999,7767,.83547E-3,.20213E-3,0
YAOGAN-39 02B,2023-145D,2025-02-08T12:44:47.397696,15.22680847,.0004894,34.9952,64.8131,263.9612,96.0544,0,U,57889,999,7783,.10671E-2,.25523E-3,0
YAOGAN-39 02C,2023-145E,2025-02-08T12:48:37.420416,15.23323456,.0001707,34.9961,64.8383,51.0476,309.0391,0,U,57890,999,7780,.75578E-3,.18391E-3,0
STARLINK-30465,2023-146A,2025-02-08T03:30:48.120192,15.02518842,.0001171,43.0025,297.4471,270.4030,89.6679,0,U,57891,999,7771,.61704E-5,-.12E-5,0
STARLINK-30470,2023-146B,2025-02-08T09:48:53.268768,15.02534139,.0001016,43.0022,295.9792,278.7143,81.3585,0,U,57892,999,7775,.8296E-5,-.91E-6,0
STARLINK-30473,2023-146C,2025-02-07T23:40:56.668800,15.02531296,.0000989,43.0047,297.9148,277.9594,82.1136,0,U,57893,999,7769,.42513E-4,.371E-5,0
STARLINK-30443,2023-146D,2025-02-08T09:39:17.976096,15.02513051,.0000992,43.0008,295.9282,290.1498,69.9237,0,U,57894,999,7775,-.38661E-3,-.5419E-4,0
STARLINK-30467,2023-146E,2025-02-08T09:44:05.077248,15.02537615,.0001263,43.0031,295.9535,271.1591,88.9106,0,U,57895,999,7775,.42848E-4,.375E-5,0
STARLINK-30469,2023-146F,2025-02-08T09:34:29.623872,15.02524724,.0001601,43.0019,295.9047,246.4815,113.5860,0,U,57896,999,7775,.17101E-3,.2106E-4,0
STARLINK-30474,2023-146G,2025-02-08T09:26:30.473664,15.02536063,.0001647,43.0027,295.8627,255.4487,104.6173,0,U,57897,999,7775,.19483E-4,.59E-6,0
STARLINK-30479,2023-146H,2025-02-08T09:24:54.466848,15.02537088,.0001397,43.0034,295.8524,266.9194,93.1489,0,U,57898,999,7775,.14165E-3,.171E-4,0
STARLINK-30481,2023-146J,2025-02-08T09:20:06.718560,15.02536675,.0001331,43.0035,295.8277,262.9553,97.1138,0,U,57899,999,7775,.39314E-4,.327E-5,0
STARLINK-30457,2023-146K,2025-02-08T02:34:49.931904,15.02534018,.0001099,43.0005,297.1632,259.5761,100.4958,0,U,57900,999,7665,.39541E-4,.331E-5,0
STARLINK-30472,2023-146L,2025-02-08T10:07:53.129280,15.02517759,.0000953,43.0047,295.2121,261.6852,98.3883,0,U,57901,999,7670,.49391E-3,.6471E-4,0
STARLINK-30462,2023-146M,2025-02-08T02:47:36.699936,15.02534693,.0001049,43.0037,297.2227,274.7018,85.3704,0,U,57902,999,7767,.81025E-5,-.94E-6,0
STARLINK-30449,2023-146N,2025-02-08T10:03:06.200928,15.02530870,.0001894,43.0046,295.1879,274.6029,85.4597,0,U,57903,999,7670,-.10421E-3,-.1611E-4,0
STARLINK-30466,2023-146P,2025-02-08T02:42:48.984480,15.02536800,.000125,43.0033,297.1974,258.0139,102.0563,0,U,57904,999,7665,.12253E-3,.1452E-4,0
STARLINK-30451,2023-146Q,2025-02-08T09:58:17.459904,15.02549677,.0001513,43.0039,295.1632,265.7847,94.2823,0,U,57905,999,7670,-.22771E-3,-.3279E-4,0
