STARLINK-30445          
1 57873U 23144K   25039.04717694 -.00000057  00000+0  10843-4 0  9993
2 57873  43.0024 272.0757 0000990 265.9367  94.1363 15.02532320 78207
STARLINK-30447          
1 57874U 23144L   25039.28042618 -.00000361  00000+0 -11663-4 0  9997
2 57874  43.0019 245.1139 0002597 263.3363  96.7184 15.02527305 78576
STARLINK-30434          
1 57875U 23144M   25039.03718040  .00001589  00000+0  13263-3 0  9998
2 57875  43.0020 271.9977 0001293 274.1985  85.8709 15.02538009 78258
STARLINK-30429          
1 57876U 23144N   25039.36624642  .00000257  00000+0  34048-4 0  9995
2 57876  42.9987 270.1670 0000391 327.1060  32.9758 15.02536630 78290
STARLINK-30284          
1 57877U 23144P   25039.82247937  .00000011  00000+0  15915-4 0  9995
2 57877  43.0022 229.3275 0001439 269.9036  90.1642 15.02532352 78813
STARLINK-30433          
1 57878U 23144Q   25039.36291445  .00000809  00000+0  74980-4 0  9990
2 57878  43.0049 270.1388 0001101 272.3371  87.7346 15.02538345 78291
STARLINK-30358          
1 57879U 23144R   25039.36069674  .00001288  00000+0  11039-3 0  9995
2 57879  43.0025 270.1247 0001133 266.3935  93.6778 15.02535377 78291
STARLINK-30436          
1 57880U 23144S   25039.35292778 -.00000846  00000+0 -47577-4 0  9997
2 57880  43.0005 270.0675 0000761 261.0775  98.9982 15.02539382 78290
STARLINK-30339          
1 57882U 23144U   25039.81494341  .00000277  00000+0  35568-4 0  9993
2 57882  43.0018 267.5118 0001041 266.7651  93.3073 15.02533147 78378
STARLINK-30282          
1 57883U 23144V   25039.34404815 -.00000106  00000+0  72117-5 0  9993
2 57883  43.0027 269.9983 0001213 265.2058  94.8646 15.02532931 78294
STARLINK-30340          
1 57884U 23144W   25039.33961116 -.00000503  00000+0 -22176-4 0  9996
2 57884  43.0018 269.9564 0000777 265.8866  94.1888 15.02528853 78296
STARLINK-30279          
1 57885U 23144X   25039.34293347  .00000578  00000+0  57865-4 0  9995
2 57885  42.9991 269.9897 0001239 269.3917  90.6783 15.02534314 78232
YAOGAN-39 02A           
1 57886U 23145A   25039.53442154  .00020213  00000+0  83547-3 0  9993
2 57886  35.0016  64.9561 0005772 214.0256 146.0089 15.23101201 77674
YAOGAN-39 02B           
1 57889U 23145D   25039.53110414  .00025523  00000+0  10671-2 0  9993
2 57889  34.9952  64.8131 0004894 263.9612  96.0544 15.22680847 77834
YAOGAN-39 02C           
1 57890U 23145E   25039.53376644  .00018391  00000+0  75578-3 0  9997
2 57890  34.9961  64.8383 0001707  51.0476 309.0391 15.23323456 77804
STARLINK-30465          
1 57891U 23146A   25039.14639028 -.00000120  00000+0  61704-5 0  9994
2 57891  43.0025 297.4471 0001171 270.4030  89.6679 15.02518842 77719
STARLINK-30470          
1 57892U 23146B   25039.40894987 -.00000091  00000+0  82960-5 0  9995
2 57892  43.0022 295.9792 0001016 278.7143  81.3585 15.02534139 77756
STARLINK-30473          
1 57893U 23146C   25038.98676700  .00000371  00000+0  42513-4 0  9998
2 57893  43.0047 297.9148 0000989 277.9594  82.1136 15.02531296 77695
STARLINK-30443          
1 57894U 23146D   25039.40229139 -.00005419  00000+0 -38661-3 0  9995
2 57894  43.0008 295.9282 0000992 290.1498  69.9237 15.02513051 77755
STARLINK-30467          
1 57895U 23146E   25039.40561432  .00000375  00000+0  42848-4 0  9998
2 57895  43.0031 295.9535 0001263 271.1591  88.9106 15.02537615 77756
STARLINK-30469          
1 57896U 23146F   25039.39895398  .00002106  00000+0  17101-3 0  9995
2 57896  43.0019 295.9047 0001601 246.4815 113.5860 15.02524724 77750
STARLINK-30474          
1 57897U 23146G   25039.39340826  .00000059  00000+0  19483-4 0  9998
2 57897  43.0027 295.8627 0001647 255.4487 104.6173 15.02536063 77755
STARLINK-30479          
1 57898U 23146H   25039.39229707  .00001710  00000+0  14165-3 0  9999
2 57898  43.0034 295.8524 0001397 266.9194  93.1489 15.02537088 77754
STARLINK-30481          
1 57899U 23146J   25039.38896665  .00000327  00000+0  39314-4 0  9999
2 57899  43.0035 295.8277 0001331 262.9553  97.1138 15.02536675 77750
STARLINK-30457          
1 57900U 23146K   25039.10752236  .00000331  00000+0  39541-4 0  9994
2 57900  43.0005 297.1632 0001099 259.5761 100.4958 15.02534018 76659
STARLINK-30472          
1 57901U 23146L   25039.42214270  .00006471  00000+0  49391-3 0  9995
2 57901  43.0047 295.2121 0000953 261.6852  98.3883 15.02517759 76702
STARLINK-30462          
1 57902U 23146M   25039.11639699 -.00000094  00000+0  81025-5 0  9996
2 57902  43.0037 297.2227 0001049 274.7018  85.3704 15.02534693 77678
STARLINK-30449          
1 57903U 23146N   25039.41882177 -.00001611  00000+0 -10421-3 0  9998
2 57903  43.0046 295.1879 0001894 274.6029  85.4597 15.02530870 76705
STARLINK-30466          
1 57904U 23146P   25039.11306695  .00001452  00000+0  12253-3 0  9998
2 57904  43.0033 297.1974 0001250 258.0139 102.0563 15.02536800 76656
STARLINK-30451          
1 57905U 23146Q   25039.41547986 -.00003279  00000+0 -22771-3 0  9999
2 57905  43.0039 295.1632 0001513 265.7847  94.2823 15.02549677 76708
